[{"OBJECT_NAME":"STARLINK-5933","OBJECT_ID":"2023-037AZ","EPOCH":"2026-03-09T22:41:03.525216","MEAN_MOTION":14.98330477,"ECCENTRICITY":0.00027263,"INCLINATION":69.998,"RA_OF_ASC_NODE":263.7225,"ARG_OF_PERICENTER":270.5332,"MEAN_ANOMALY":89.5515,"EPHEMERIS_TYPE":0,"CLASSIFICATION_TYPE":"U","NORAD_CAT_ID":55961,"ELEMENT_SET_NO":999,"REV_AT_EPOCH":16451,"BSTAR":1.9695852e-5,"MEAN_MOTION_DOT":1.42e-6,"MEAN_MOTION_DDOT":0},{"OBJECT_NAME":"USA 40 R\/B DEB","OBJECT_ID":"1989-061BB","EPOCH":"2026-03-09T08:21:19.702944","MEAN_MOTION":8.91959827,"ECCENTRICITY":0.29739701,"INCLINATION":56.9945,"RA_OF_ASC_NODE":66.5288,"ARG_OF_PERICENTER":180.4145,"MEAN_ANOMALY":179.3944,"EPHEMERIS_TYPE":0,"CLASSIFICATION_TYPE":"U","NORAD_CAT_ID":23379,"ELEMENT_SET_NO":999,"REV_AT_EPOCH":22352,"BSTAR":0.0036101435,"MEAN_MOTION_DOT":4.504e-5,"MEAN_MOTION_DDOT":0}]
